OBJECT_NAME,OBJECT_ID,EPOCH,MEAN_MOTION,ECCENTRICITY,INCLINATION,RA_OF_ASC_NODE,ARG_OF_PERICENTER,MEAN_ANOMALY,EPHEMERIS_TYPE,CLASSIFICATION_TYPE,NORAD_CAT_ID,ELEMENT_SET_NO,REV_AT_EPOCH,BSTAR,MEAN_MOTION_DOT,MEAN_MOTION_DDOT
STARLINK-37384,2026-127T,2026-06-19T05:52:14.369664,15.80990554,.00017502,53.1578,251.8558,28.2465,331.8653,0,U,69460,999,173,.15725897E-2,.323329E-2,0
STARLINK-37707,2026-127U,2026-06-19T05:44:14.614656,15.80962970,.00006588,53.1593,251.8169,65.2974,294.8117,0,U,69461,999,173,.19586314E-3,.3829E-3,0
STARLINK-37525,2026-127V,2026-06-19T05:44:03.123456,15.80901732,.00015761,53.1586,251.8155,44.7886,315.3264,0,U,69462,999,173,.10302426E-2,.207882E-2,0
STARLINK-37526,2026-127W,2026-06-19T05:43:08.448672,15.80958440,.00014244,53.1600,251.8133,38.5185,321.5939,0,U,69463,999,173,.12225493E-2,.248645E-2,0
STARLINK-37574,2026-127X,2026-06-19T05:33:15.103584,15.81299100,.00036197,53.1583,251.7674,11.3030,348.8073,0,U,69464,999,173,-.39151688E-2,-.726721E-2,0
STARLINK-37535,2026-127Y,2026-06-19T05:35:57.323040,15.80923507,.00011537,53.1589,251.7775,45.8856,314.2261,0,U,69465,999,173,.72781403E-3,.145735E-2,0
STARLINK-37583,2026-127Z,2026-06-19T05:20:44.038752,15.82692844,.0001058,53.1585,251.7061,97.2584,262.8560,0,U,69466,999,173,-.47305319E-2,-.915898E-2,0
STARLINK-37546,2026-127AA,2026-06-19T05:17:40.673760,15.83325045,.00014621,53.1578,251.6915,83.2089,276.9101,0,U,69467,999,173,-.43193203E-2,-.866965E-2,0
STARLINK-37532,2026-127AB,2026-06-19T05:18:57.936096,15.82159434,.00026258,53.1576,251.6979,18.6565,341.4554,0,U,69468,999,173,-.44081842E-2,-.84031E-2,0
STARLINK-37708,2026-127AC,2026-06-19T05:17:07.083168,15.82449892,.00024823,53.1582,251.6867,353.6001,6.4990,0,U,69469,999,173,-.37870572E-2,-.740371E-2,0
STARLINK-37686,2026-127AD,2026-06-19T06:45:11.835072,15.82623440,.00027017,53.1580,251.3580,157.6250,202.4892,0,U,69470,999,174,-.46093113E-2,-.892672E-2,0
STARLINK-37451,2026-127AE,2026-06-19T00:00:02.000160,15.84194287,.00009896,53.1580,252.7499,70.6105,135.2061,0,U,69471,999,293,-.11175696E-1,-.2200549E-1,0
DTC TEST OBJECT A,2026-128A,2026-06-18T20:07:24.019680,15.55903712,.00086159,54.9939,297.4006,295.5156,64.4988,0,U,69472,999,148,.30728448E-3,.21253E-3,0
DTC TEST OBJECT B,2026-128B,2026-06-19T06:51:40.220352,15.56401637,.00086957,55.0029,295.3169,297.7274,62.2880,0,U,69473,999,154,.41262434E-3,.29276E-3,0
TJS-25,2026-129A,2026-06-11T11:34:53.014656,1.72502163,.7751889,16.5302,30.5351,199.9639,91.9387,0,U,69474,999,7,.19774E-2,.7407E-4,0
STARLINK-37816,2026-131A,2026-06-17T18:00:02.999808,15.96316495,.00011495,97.2824,188.9762,80.4448,35.9636,0,U,69478,999,210,-.2655077E-2,-.1093379E-1,.37145704E-3
STARLINK-37878,2026-131B,2026-06-17T10:00:01.999584,15.97036350,.00008726,97.2817,188.6149,97.2660,265.8231,0,U,69479,999,131,-.22776066E-2,-.976144E-2,.30334162E-3
STARLINK-37817,2026-131C,2026-06-17T18:00:02.999808,15.96547425,.00011812,97.2822,188.9776,77.8521,42.4103,0,U,69480,999,210,-.26268227E-2,-.1095329E-1,.37360476E-3
STARLINK-37727,2026-131D,2026-06-17T18:00:02.999808,15.96671350,.00011745,97.2819,188.9784,76.6396,45.7078,0,U,69481,999,210,-.26175375E-2,-.1098784E-1,.37628858E-3
STARLINK-37814,2026-131E,2026-06-17T18:00:02.999808,15.96778578,.00011811,97.2821,188.9793,77.2384,46.9070,0,U,69482,999,210,-.26030553E-2,-.1099082E-1,.37691003E-3
STARLINK-37869,2026-131F,2026-06-17T18:00:02.999808,15.96910777,.00011494,97.2820,188.9802,76.2430,50.1342,0,U,69483,999,210,-.2603614E-2,-.1107172E-1,.38260644E-3
STARLINK-37873,2026-131G,2026-06-17T18:00:02.999808,15.97024990,.00011606,97.2820,188.9809,76.2701,51.9896,0,U,69484,999,210,-.25920221E-2,-.1109103E-1,.3843137E-3
STARLINK-37892,2026-131H,2026-06-17T18:00:02.999808,15.97108252,.00011498,97.2819,188.9816,78.7411,50.8476,0,U,69485,999,210,-.25572949E-2,-.1099303E-1,.37838735E-3
STARLINK-37893,2026-131J,2026-06-17T18:00:02.999808,15.97225915,.00011655,97.2818,188.9823,77.5835,53.9573,0,U,69486,999,218,-.25487385E-2,-.1102657E-1,.3810102E-3
STARLINK-37842,2026-131K,2026-06-17T20:00:01.999872,15.97137733,.0001069,97.2817,189.0737,79.0004,173.2061,0,U,69487,999,211,-.24442105E-2,-.1052755E-1,.34935296E-3
STARLINK-37449,2026-131L,2026-06-17T20:00:01.999872,15.97254920,.00010931,97.2818,189.0744,79.7938,174.4151,0,U,69488,999,220,-.24338781E-2,-.1055018E-1,.35118975E-3
STARLINK-37831,2026-131M,2026-06-17T10:00:01.999584,15.98221671,.00009334,97.2813,188.6216,90.8599,290.4087,0,U,69489,999,131,-.21761412E-2,-.995223E-2,.31852185E-3
STARLINK-37879,2026-131N,2026-06-17T20:00:01.999872,15.97486806,.00010973,97.2816,189.0761,79.1630,178.9501,0,U,69490,999,211,-.24145498E-2,-.1059963E-1,.35513589E-3
STARLINK-37856,2026-131P,2026-06-17T20:00:01.999872,15.97605672,.00011136,97.2816,189.0765,78.4450,181.6887,0,U,69491,999,217,-.24065046E-2,-.1063313E-1,.35767922E-3
